[{"OBJECT_NAME":"YUNHAI-2 01E","OBJECT_ID":"2018-112E","EPOCH":"2026-03-09T23:43:19.223616","MEAN_MOTION":14.28966536,"ECCENTRICITY":0.0005031,"INCLINATION":50.0058,"RA_OF_ASC_NODE":227.8366,"ARG_OF_PERICENTER":19.8799,"MEAN_ANOMALY":340.2311,"EPHEMERIS_TYPE":0,"CLASSIFICATION_TYPE":"U","NORAD_CAT_ID":43913,"ELEMENT_SET_NO":999,"REV_AT_EPOCH":37497,"BSTAR":0.00013746904,"MEAN_MOTION_DOT":1.88e-6,"MEAN_MOTION_DDOT":0},{"OBJECT_NAME":"FENGYUN 1C DEB","OBJECT_ID":"1999-025CSM","EPOCH":"2026-03-05T18:17:37.769280","MEAN_MOTION":14.18062656,"ECCENTRICITY":0.01024396,"INCLINATION":98.6085,"RA_OF_ASC_NODE":44.1373,"ARG_OF_PERICENTER":229.3267,"MEAN_ANOMALY":129.8972,"EPHEMERIS_TYPE":0,"CLASSIFICATION_TYPE":"U","NORAD_CAT_ID":32143,"ELEMENT_SET_NO":999,"REV_AT_EPOCH":97110,"BSTAR":0.00021924888,"MEAN_MOTION_DOT":4.3e-6,"MEAN_MOTION_DDOT":0}]
